COSMOS 2058             
1 20465U 90010A   26164.49561468  .00003957  00000+0  22873-3 0  9997
2 20465  82.4666 312.9953 0009673  14.0465 346.1033 15.11989238956713
SL-14 R/B               
1 20466U 90010B   26164.52594176  .00000366  00000+0  41352-4 0  9999
2 20466  82.5016 177.3834 0019411 348.6604  11.4171 14.83644167942691
SL-14 R/B               
1 20511U 90018B   26164.63597995  .00000357  00000+0  41704-4 0  9993
2 20511  82.5209 133.4269 0017250 132.6042 227.6631 14.82214064936791
HST                     
1 20580U 90037B   26164.23141094  .00006133  00000+0  19317-3 0  9993
2 20580  28.4712 107.6084 0001932 101.0971 258.9842 15.30704754787962
SL-16 R/B               
1 20625U 90046B   26164.55499157  .00000243  00000+0  14978-3 0  9998
2 20625  70.9994  96.5760 0013649 167.1998 192.9474 14.15024997861959
COSMOS 2084             
1 20663U 90055A   26164.27700880  .00001963  00000+0  14737-3 0  9990
2 20663  62.7910   9.4372 0005493 272.2443  87.8028 15.06100930950714
SL-6 R/B(2)             
1 20666U 90055D   26164.59197017  .00001541  00000+0  12390-3 0  9995
2 20666  62.7824 287.6105 0040038   4.6257 355.5204 15.03992578952615
SL-8 R/B                
1 20775U 90078B   26164.50712801  .00019473  00000+0  54841-3 0  9996
2 20775  82.9003 164.9696 0351753  50.8703 312.3228 14.92177828823578
SL-8 R/B                
1 21088U 91006B   26164.59929983  .00000028  00000+0  12594-4 0  9992
2 21088  82.9424  98.7027 0023542 124.1000  48.6584 13.77505564777275
OKEAN-3                 
1 21397U 91039A   26164.61555596  .00002362  00000+0  16289-3 0  9996
2 21397  82.5159 243.8444 0014379  11.2901 348.8646 15.05308224879464
COSMOS 2151             
1 21422U 91042A   26164.59188935  .00001681  00000+0  13135-3 0  9995
2 21422  82.4960 351.1510 0013822  94.8235 265.4568 15.00428726877570
SL-14 R/B               
1 21423U 91042B   26164.37167260  .00000341  00000+0  40089-4 0  9991
2 21423  82.4925 130.4736 0015507 288.6712  71.2819 14.81900278867245
ERS-1                   
1 21574U 91050A   26164.55041982  .00000343  00000+0  12446-3 0  9996
2 21574  98.7797 185.1595 0030703 278.2490  81.5216 14.39515874829523
ARIANE 40 R/B           
1 21610U 91050F   26164.58188909  .00000264  00000+0  91462-4 0  9999
2 21610  98.1877 213.1391 0004114 129.0638 231.0920 14.42955129832823
INTERCOSMOS 25          
1 21819U 91086A   26164.48024275  .00000555  00000+0  11075-3 0  9997
2 21819  82.6052 252.0532 1484152 270.3971  72.7791 12.12191203508298
SL-8 R/B                
1 21876U 92008B   26164.64728403  .00000144  00000+0  13279-3 0  9999
2 21876  82.9264 196.4195 0033630 224.8533 254.8930 13.75976016722618
SL-8 R/B                
1 21938U 92020B   26164.51244888  .00000047  00000+0  32485-4 0  9991
2 21938  82.9306  82.5867 0029955  32.6123 140.4139 13.75548445714309
USA 81                  
1 21949U 92023A   26164.50261137  .00000150  00000+0  48238-4 0  9999
2 21949  85.0077  76.1339 0002785  88.1064 272.0448 14.32397276108507
COSMOS 2219             
1 22219U 92076A   26164.44152630  .00000182  00000+0  12017-3 0  9998
2 22219  71.0576 177.9023 0016426  50.2866 309.9701 14.14096913731917
SL-16 R/B               
1 22220U 92076B   26164.56977924 -.00000009  00000+0  19424-4 0  9993
2 22220  71.0003 346.4018 0014585 303.3821 113.8616 14.16871200735416
COSMOS 2221             
1 22236U 92080A   26164.52840499  .00001339  00000+0  11542-3 0  9995
2 22236  82.5030 187.2700 0013005 225.5106 134.5054 14.96525022795122
SL-16 R/B               
1 22285U 92093B   26164.42628988 -.00000282  00000+0 -12019-3 0  9997
2 22285  71.0199 163.2868 0004169 194.6358 165.4645 14.15462970726700
COSMOS 2228             
1 22286U 92094A   26164.61325244  .00001944  00000+0  16384-3 0  9992
2 22286  82.5173 145.4661 0017245 344.7380  15.3320 14.97575047790417
SL-16 R/B               
1 22566U 93016B   26164.61801003  .00000320  00000+0  18847-3 0  9993
2 22566  71.0083  13.7042 0010475 188.4219 171.6730 14.15311903715746
COSMOS 2242             
1 22626U 93024A   26164.50422190  .00001629  00000+0  13940-3 0  9995
2 22626  82.5179 175.0665 0015702 349.1341  10.9540 14.96893569794720
SL-16 R/B               
1 22803U 93059B   26164.46683627  .00000200  00000+0  12267-3 0  9994
2 22803  70.9886 169.1493 0015110  60.3566 299.9061 14.17247452693104
ARIANE 40 R/B           
1 22830U 93061H   26164.43467467  .00000171  00000+0  78473-4 0  9995
2 22830  98.4819 231.3696 0010715   7.6034 352.5311 14.32906438707813
COSMOS 2278             
1 23087U 94023A   26164.64005713  .00000232  00000+0  14603-3 0  9996
2 23087  71.0548 334.3466 0010599 247.2448 112.7555 14.14396777658375
SL-16 R/B               
1 23088U 94023B   26164.57271154  .00000333  00000+0  19658-3 0  9990
2 23088  70.9994 229.5221 0003007 189.6369 170.4697 14.15022875659656
SL-16 R/B               
1 23343U 94074B   26164.57308353  .00000396  00000+0  59528-4 0  9992
2 23343  97.6992 191.4446 0005073 268.9489 206.7398 14.79499576701429
