OBJECT_NAME,OBJECT_ID,EPOCH,MEAN_MOTION,ECCENTRICITY,INCLINATION,RA_OF_ASC_NODE,ARG_OF_PERICENTER,MEAN_ANOMALY,EPHEMERIS_TYPE,CLASSIFICATION_TYPE,NORAD_CAT_ID,ELEMENT_SET_NO,REV_AT_EPOCH,BSTAR,MEAN_MOTION_DOT,MEAN_MOTION_DDOT
COSMOS 2058,1990-010A,2026-06-13T11:53:41.108352,15.11989238,.00096738,82.4666,312.9953,14.0465,346.1033,0,U,20465,999,95671,.22872778E-3,.3957E-4,0
SL-14 R/B,1990-010B,2026-06-13T12:37:21.368064,14.83644167,.00194115,82.5016,177.3834,348.6604,11.4171,0,U,20466,999,94269,.4135196E-4,.366E-5,0
SL-14 R/B,1990-018B,2026-06-13T15:15:48.667680,14.82214064,.00172509,82.5209,133.4269,132.6042,227.6631,0,U,20511,999,93679,.41704416E-4,.357E-5,0
HST,1990-037B,2026-06-13T05:33:13.905216,15.30704754,.0001932,28.4712,107.6084,101.0971,258.9842,0,U,20580,999,78796,.19317E-3,.6133E-4,0
SL-16 R/B,1990-046B,2026-06-13T13:19:11.271648,14.15024997,.00136496,70.9994,96.5760,167.1998,192.9474,0,U,20625,999,86195,.14977856E-3,.243E-5,0
COSMOS 2084,1990-055A,2026-06-13T06:38:53.560320,15.06100930,.0005493,62.7910,9.4372,272.2443,87.8028,0,U,20663,999,95071,.14737E-3,.1963E-4,0
SL-6 R/B(2),1990-055D,2026-06-13T14:12:26.222688,15.03992578,.00400388,62.7824,287.6105,4.6257,355.5204,0,U,20666,999,95261,.12389731E-3,.1541E-4,0
SL-8 R/B,1990-078B,2026-06-13T12:10:15.860064,14.92177828,.03517534,82.9003,164.9696,50.8703,312.3228,0,U,20775,999,82357,.54840618E-3,.19473E-3,0
SL-8 R/B,1991-006B,2026-06-13T14:22:59.505312,13.77505564,.00235421,82.9424,98.7027,124.1000,48.6584,0,U,21088,999,77727,.12594278E-4,.28E-6,0
OKEAN-3,1991-039A,2026-06-13T14:46:24.034944,15.05308224,.0014379,82.5159,243.8444,11.2901,348.8646,0,U,21397,999,87946,.16289472E-3,.2362E-4,0
COSMOS 2151,1991-042A,2026-06-13T14:12:19.239840,15.00428726,.00138229,82.4960,351.1510,94.8235,265.4568,0,U,21422,999,87757,.13134657E-3,.1681E-4,0
SL-14 R/B,1991-042B,2026-06-13T08:55:12.512640,14.81900278,.00155075,82.4925,130.4736,288.6712,71.2819,0,U,21423,999,86724,.40088815E-4,.341E-5,0
ERS-1,1991-050A,2026-06-13T13:12:36.272448,14.39515874,.00307036,98.7797,185.1595,278.2490,81.5216,0,U,21574,999,82952,.12446174E-3,.343E-5,0
ARIANE 40 R/B,1991-050F,2026-06-13T13:57:55.217376,14.42955129,.00041141,98.1877,213.1391,129.0638,231.0920,0,U,21610,999,83282,.9146192E-4,.264E-5,0
INTERCOSMOS 25,1991-086A,2026-06-13T11:31:32.973600,12.12191203,.14841528,82.6052,252.0532,270.3971,72.7791,0,U,21819,999,50829,.11074759E-3,.555E-5,0
SL-8 R/B,1992-008B,2026-06-13T15:32:05.340192,13.75976016,.00336302,82.9264,196.4195,224.8533,254.8930,0,U,21876,999,72261,.13279021E-3,.144E-5,0
SL-8 R/B,1992-020B,2026-06-13T12:17:55.583232,13.75548445,.00299551,82.9306,82.5867,32.6123,140.4139,0,U,21938,999,71430,.32485356E-4,.47E-6,0
USA 81,1992-023A,2026-06-13T12:03:45.622368,14.32397276,.00027854,85.0077,76.1339,88.1064,272.0448,0,U,21949,999,10850,.48238079E-4,.15E-5,0
COSMOS 2219,1992-076A,2026-06-13T10:35:47.872320,14.14096913,.00164262,71.0576,177.9023,50.2866,309.9701,0,U,22219,999,73191,.1201668E-3,.182E-5,0
SL-16 R/B,1992-076B,2026-06-13T13:40:28.926336,14.16871200,.00145853,71.0003,346.4018,303.3821,113.8616,0,U,22220,999,73541,.19423745E-4,-.9E-7,0
COSMOS 2221,1992-080A,2026-06-13T12:40:54.191136,14.96525022,.00130053,82.5030,187.2700,225.5106,134.5054,0,U,22236,999,79512,.11542052E-3,.1339E-4,0
SL-16 R/B,1992-093B,2026-06-13T10:13:51.445632,14.15462970,.00041695,71.0199,163.2868,194.6358,165.4645,0,U,22285,999,72670,-.12019372E-3,-.282E-5,0
COSMOS 2228,1992-094A,2026-06-13T14:43:05.010816,14.97575047,.00172453,82.5173,145.4661,344.7380,15.3320,0,U,22286,999,79041,.16383901E-3,.1944E-4,0
SL-16 R/B,1993-016B,2026-06-13T14:49:56.066592,14.15311903,.00104754,71.0083,13.7042,188.4219,171.6730,0,U,22566,999,71574,.18846518E-3,.32E-5,0
COSMOS 2242,1993-024A,2026-06-13T12:06:04.772160,14.96893569,.00157021,82.5179,175.0665,349.1341,10.9540,0,U,22626,999,79472,.13940461E-3,.1629E-4,0
SL-16 R/B,1993-059B,2026-06-13T11:12:14.653728,14.17247452,.00151102,70.9886,169.1493,60.3566,299.9061,0,U,22803,999,69310,.12266609E-3,.2E-5,0
ARIANE 40 R/B,1993-061H,2026-06-13T10:25:55.891488,14.32906438,.00107151,98.4819,231.3696,7.6034,352.5311,0,U,22830,999,70781,.78473169E-4,.171E-5,0
COSMOS 2278,1994-023A,2026-06-13T15:21:40.936032,14.14396777,.00105992,71.0548,334.3466,247.2448,112.7555,0,U,23087,999,65837,.1460343E-3,.232E-5,0
SL-16 R/B,1994-023B,2026-06-13T13:44:42.277056,14.15022875,.00030072,70.9994,229.5221,189.6369,170.4697,0,U,23088,999,65965,.19658083E-3,.333E-5,0
SL-16 R/B,1994-074B,2026-06-13T13:45:14.416992,14.79499576,.00050734,97.6992,191.4446,268.9489,206.7398,0,U,23343,999,70142,.59527999E-4,.396E-5,0
